SHIJIAN-17 (SJ-17)      
1 41838U 16065A   26116.34201248 -.00000288  00000+0  00000+0 0  9999
2 41838   5.6237  73.2120 0001505 350.1602 227.3501  0.99864109 34689
GOES 16                 
1 41866U 16071A   26116.52834772 -.00000103  00000+0  00000+0 0  9997
2 41866   0.2120  85.2831 0001506 249.7867 324.9509  1.00271169 34583
TIANLIAN 1-04           
1 41869U 16072A   26116.52909091  .00000019  00000+0  00000+0 0  9993
2 41869   0.7341  83.0755 0040113  92.1792  46.5275  1.00272407 34786
WGS F8 (USA 272)        
1 41879U 16075A   26116.51669588 -.00000214  00000+0  00000+0 0  9998
2 41879   0.0122 282.9807 0000379 230.9415  36.4062  1.00272598 34300
FENGYUN 4A              
1 41882U 16077A   26115.30638583 -.00000369  00000+0  00000+0 0  9992
2 41882   2.1903  80.7930 0008212 141.4993 225.0593  1.00267100 34405
ECHOSTAR 19             
1 41893U 16079A   26116.40348193  .00000000  00000+0  00000+0 0  9994
2 41893   0.0132 230.5252 0001143 170.7527 221.2829  1.00268694 34188
JCSAT-110A (JCSAT-15)   
1 41903U 16082A   26116.37127868  .00000000  00000+0  00000+0 0  9990
2 41903   0.0173 233.8051 0000686 165.9363  58.3659  1.00268129 34243
STAR ONE D1             
1 41904U 16082B   26116.47733977 -.00000223  00000+0  00000+0 0  9994
2 41904   0.0191 101.0957 0002219 299.9329 261.3048  1.00273026 34250
TJS-2                   
1 41911U 17001A   26116.50715323 -.00000018  00000+0  00000+0 0  9995
2 41911   0.7015  85.8897 0001055 295.0195  82.7099  1.00272812 34205
SBIRS GEO-4 (USA 273)   
1 41937U 17004A   26116.49813985  .00000113  00000+0  00000+0 0  9992
2 41937   2.1481  41.8141 0002325 346.1758  26.7349  1.00272185 34089
HISPASAT 36W-1          
1 41942U 17006A   26116.41553836 -.00000257  00000+0  00000+0 0  9998
2 41942   0.0047  62.9098 0000933 321.8670 303.2362  1.00271563 33728
TELKOM 3S               
1 41944U 17007A   26116.44613181 -.00000375  00000+0  00000+0 0  9995
2 41944   0.0143 242.2834 0002376 156.9233  93.8537  1.00271020 33626
INTELSAT 32E (IS-32E)   
1 41945U 17007B   26116.48548647  .00000000  00000+0  00000+0 0  9998
2 41945   0.0203 245.2802 0001533  69.0348  31.7753  1.00251322 33700
ECHOSTAR 23             
1 42070U 17014A   26116.50253042 -.00000069  00000+0  00000+0 0  9997
2 42070   0.0188 228.5826 0002133 171.1884 245.7428  1.00271990 33405
WGS F9 (USA 275)        
1 42075U 17016A   26116.34903249 -.00000109  00000+0  00000+0 0  9992
2 42075   0.0100 236.2594 0000664  71.9528  19.8259  1.00270972 33378
SES-10                  
1 42432U 17017A   26116.48071978 -.00000285  00000+0  00000+0 0  9995
2 42432   0.0269  15.9226 0002839  34.5277 270.1975  1.00271495 33230
CHINASAT 16 (SJ-13)     
1 42662U 17018A   26115.86194414 -.00000366  00000+0  00000+0 0  9993
2 42662   0.1045  86.8445 0004633 163.9351  23.8943  1.00274178 33220
