[{"OBJECT_NAME":"SHIJIAN-17 (SJ-17)","OBJECT_ID":"2016-065A","EPOCH":"2026-04-26T08:12:29.878272","MEAN_MOTION":0.99864109,"ECCENTRICITY":0.0001505,"INCLINATION":5.6237,"RA_OF_ASC_NODE":73.212,"ARG_OF_PERICENTER":350.1602,"MEAN_ANOMALY":227.3501,"EPHEMERIS_TYPE":0,"CLASSIFICATION_TYPE":"U","NORAD_CAT_ID":41838,"ELEMENT_SET_NO":999,"REV_AT_EPOCH":3468,"BSTAR":0,"MEAN_MOTION_DOT":-2.88e-6,"MEAN_MOTION_DDOT":0},{"OBJECT_NAME":"GOES 16","OBJECT_ID":"2016-071A","EPOCH":"2026-04-26T12:40:49.243008","MEAN_MOTION":1.00271169,"ECCENTRICITY":0.0001506,"INCLINATION":0.212,"RA_OF_ASC_NODE":85.2831,"ARG_OF_PERICENTER":249.7867,"MEAN_ANOMALY":324.9509,"EPHEMERIS_TYPE":0,"CLASSIFICATION_TYPE":"U","NORAD_CAT_ID":41866,"ELEMENT_SET_NO":999,"REV_AT_EPOCH":3458,"BSTAR":0,"MEAN_MOTION_DOT":-1.03e-6,"MEAN_MOTION_DDOT":0},{"OBJECT_NAME":"TIANLIAN 1-04","OBJECT_ID":"2016-072A","EPOCH":"2026-04-26T12:41:53.454624","MEAN_MOTION":1.00272407,"ECCENTRICITY":0.0040113,"INCLINATION":0.7341,"RA_OF_ASC_NODE":83.0755,"ARG_OF_PERICENTER":92.1792,"MEAN_ANOMALY":46.5275,"EPHEMERIS_TYPE":0,"CLASSIFICATION_TYPE":"U","NORAD_CAT_ID":41869,"ELEMENT_SET_NO":999,"REV_AT_EPOCH":3478,"BSTAR":0,"MEAN_MOTION_DOT":1.9e-7,"MEAN_MOTION_DDOT":0},{"OBJECT_NAME":"WGS F8 (USA 272)","OBJECT_ID":"2016-075A","EPOCH":"2026-04-26T12:24:02.524032","MEAN_MOTION":1.00272598,"ECCENTRICITY":3.79e-5,"INCLINATION":0.0122,"RA_OF_ASC_NODE":282.9807,"ARG_OF_PERICENTER":230.9415,"MEAN_ANOMALY":36.4062,"EPHEMERIS_TYPE":0,"CLASSIFICATION_TYPE":"U","NORAD_CAT_ID":41879,"ELEMENT_SET_NO":999,"REV_AT_EPOCH":3430,"BSTAR":0,"MEAN_MOTION_DOT":-2.14e-6,"MEAN_MOTION_DDOT":0},{"OBJECT_NAME":"FENGYUN 4A","OBJECT_ID":"2016-077A","EPOCH":"2026-04-25T07:21:11.735712","MEAN_MOTION":1.002671,"ECCENTRICITY":0.00082125,"INCLINATION":2.1903,"RA_OF_ASC_NODE":80.793,"ARG_OF_PERICENTER":141.4993,"MEAN_ANOMALY":225.0593,"EPHEMERIS_TYPE":0,"CLASSIFICATION_TYPE":"U","NORAD_CAT_ID":41882,"ELEMENT_SET_NO":999,"REV_AT_EPOCH":3440,"BSTAR":0,"MEAN_MOTION_DOT":-3.69e-6,"MEAN_MOTION_DDOT":0},{"OBJECT_NAME":"ECHOSTAR 19","OBJECT_ID":"2016-079A","EPOCH":"2026-04-26T09:41:00.838752","MEAN_MOTION":1.00268694,"ECCENTRICITY":0.0001143,"INCLINATION":0.0132,"RA_OF_ASC_NODE":230.5252,"ARG_OF_PERICENTER":170.7527,"MEAN_ANOMALY":221.2829,"EPHEMERIS_TYPE":0,"CLASSIFICATION_TYPE":"U","NORAD_CAT_ID":41893,"ELEMENT_SET_NO":999,"REV_AT_EPOCH":3418,"BSTAR":0,"MEAN_MOTION_DOT":0,"MEAN_MOTION_DDOT":0},{"OBJECT_NAME":"JCSAT-110A (JCSAT-15)","OBJECT_ID":"2016-082A","EPOCH":"2026-04-26T08:54:38.477952","MEAN_MOTION":1.00268129,"ECCENTRICITY":6.86e-5,"INCLINATION":0.0173,"RA_OF_ASC_NODE":233.8051,"ARG_OF_PERICENTER":165.9363,"MEAN_ANOMALY":58.3659,"EPHEMERIS_TYPE":0,"CLASSIFICATION_TYPE":"U","NORAD_CAT_ID":41903,"ELEMENT_SET_NO":999,"REV_AT_EPOCH":3424,"BSTAR":0,"MEAN_MOTION_DOT":0,"MEAN_MOTION_DDOT":0},{"OBJECT_NAME":"STAR ONE D1","OBJECT_ID":"2016-082B","EPOCH":"2026-04-26T11:27:22.156128","MEAN_MOTION":1.00273026,"ECCENTRICITY":0.0002219,"INCLINATION":0.0191,"RA_OF_ASC_NODE":101.0957,"ARG_OF_PERICENTER":299.9329,"MEAN_ANOMALY":261.3048,"EPHEMERIS_TYPE":0,"CLASSIFICATION_TYPE":"U","NORAD_CAT_ID":41904,"ELEMENT_SET_NO":999,"REV_AT_EPOCH":3425,"BSTAR":0,"MEAN_MOTION_DOT":-2.23e-6,"MEAN_MOTION_DDOT":0},{"OBJECT_NAME":"TJS-2","OBJECT_ID":"2017-001A","EPOCH":"2026-04-26T12:10:18.039072","MEAN_MOTION":1.00272812,"ECCENTRICITY":0.0001055,"INCLINATION":0.7015,"RA_OF_ASC_NODE":85.8897,"ARG_OF_PERICENTER":295.0195,"MEAN_ANOMALY":82.7099,"EPHEMERIS_TYPE":0,"CLASSIFICATION_TYPE":"U","NORAD_CAT_ID":41911,"ELEMENT_SET_NO":999,"REV_AT_EPOCH":3420,"BSTAR":0,"MEAN_MOTION_DOT":-1.8e-7,"MEAN_MOTION_DDOT":0},{"OBJECT_NAME":"SBIRS GEO-4 (USA 273)","OBJECT_ID":"2017-004A","EPOCH":"2026-04-26T11:57:19.283040","MEAN_MOTION":1.00272185,"ECCENTRICITY":0.0002325,"INCLINATION":2.1481,"RA_OF_ASC_NODE":41.8141,"ARG_OF_PERICENTER":346.1758,"MEAN_ANOMALY":26.7349,"EPHEMERIS_TYPE":0,"CLASSIFICATION_TYPE":"U","NORAD_CAT_ID":41937,"ELEMENT_SET_NO":999,"REV_AT_EPOCH":3408,"BSTAR":0,"MEAN_MOTION_DOT":1.13e-6,"MEAN_MOTION_DDOT":0},{"OBJECT_NAME":"HISPASAT 36W-1","OBJECT_ID":"2017-006A","EPOCH":"2026-04-26T09:58:22.514304","MEAN_MOTION":1.00271563,"ECCENTRICITY":9.33e-5,"INCLINATION":0.0047,"RA_OF_ASC_NODE":62.9098,"ARG_OF_PERICENTER":321.867,"MEAN_ANOMALY":303.2362,"EPHEMERIS_TYPE":0,"CLASSIFICATION_TYPE":"U","NORAD_CAT_ID":41942,"ELEMENT_SET_NO":999,"REV_AT_EPOCH":3372,"BSTAR":0,"MEAN_MOTION_DOT":-2.57e-6,"MEAN_MOTION_DDOT":0},{"OBJECT_NAME":"TELKOM 3S","OBJECT_ID":"2017-007A","EPOCH":"2026-04-26T10:42:25.788384","MEAN_MOTION":1.0027102,"ECCENTRICITY":0.0002376,"INCLINATION":0.0143,"RA_OF_ASC_NODE":242.2834,"ARG_OF_PERICENTER":156.9233,"MEAN_ANOMALY":93.8537,"EPHEMERIS_TYPE":0,"CLASSIFICATION_TYPE":"U","NORAD_CAT_ID":41944,"ELEMENT_SET_NO":999,"REV_AT_EPOCH":3362,"BSTAR":0,"MEAN_MOTION_DOT":-3.75e-6,"MEAN_MOTION_DDOT":0},{"OBJECT_NAME":"INTELSAT 32E (IS-32E)","OBJECT_ID":"2017-007B","EPOCH":"2026-04-26T11:39:06.031008","MEAN_MOTION":1.00251322,"ECCENTRICITY":0.0001533,"INCLINATION":0.0203,"RA_OF_ASC_NODE":245.2802,"ARG_OF_PERICENTER":69.0348,"MEAN_ANOMALY":31.7753,"EPHEMERIS_TYPE":0,"CLASSIFICATION_TYPE":"U","NORAD_CAT_ID":41945,"ELEMENT_SET_NO":999,"REV_AT_EPOCH":3370,"BSTAR":0,"MEAN_MOTION_DOT":0,"MEAN_MOTION_DDOT":0},{"OBJECT_NAME":"ECHOSTAR 23","OBJECT_ID":"2017-014A","EPOCH":"2026-04-26T12:03:38.628288","MEAN_MOTION":1.0027199,"ECCENTRICITY":0.0002133,"INCLINATION":0.0188,"RA_OF_ASC_NODE":228.5826,"ARG_OF_PERICENTER":171.1884,"MEAN_ANOMALY":245.7428,"EPHEMERIS_TYPE":0,"CLASSIFICATION_TYPE":"U","NORAD_CAT_ID":42070,"ELEMENT_SET_NO":999,"REV_AT_EPOCH":3340,"BSTAR":0,"MEAN_MOTION_DOT":-6.9e-7,"MEAN_MOTION_DDOT":0},{"OBJECT_NAME":"WGS F9 (USA 275)","OBJECT_ID":"2017-016A","EPOCH":"2026-04-26T08:22:36.407136","MEAN_MOTION":1.00270972,"ECCENTRICITY":6.64e-5,"INCLINATION":0.01,"RA_OF_ASC_NODE":236.2594,"ARG_OF_PERICENTER":71.9528,"MEAN_ANOMALY":19.8259,"EPHEMERIS_TYPE":0,"CLASSIFICATION_TYPE":"U","NORAD_CAT_ID":42075,"ELEMENT_SET_NO":999,"REV_AT_EPOCH":3337,"BSTAR":0,"MEAN_MOTION_DOT":-1.09e-6,"MEAN_MOTION_DDOT":0},{"OBJECT_NAME":"SES-10","OBJECT_ID":"2017-017A","EPOCH":"2026-04-26T11:32:14.188992","MEAN_MOTION":1.00271495,"ECCENTRICITY":0.0002839,"INCLINATION":0.0269,"RA_OF_ASC_NODE":15.9226,"ARG_OF_PERICENTER":34.5277,"MEAN_ANOMALY":270.1975,"EPHEMERIS_TYPE":0,"CLASSIFICATION_TYPE":"U","NORAD_CAT_ID":42432,"ELEMENT_SET_NO":999,"REV_AT_EPOCH":3323,"BSTAR":0,"MEAN_MOTION_DOT":-2.85e-6,"MEAN_MOTION_DDOT":0},{"OBJECT_NAME":"CHINASAT 16 (SJ-13)","OBJECT_ID":"2017-018A","EPOCH":"2026-04-25T20:41:11.973696","MEAN_MOTION":1.00274178,"ECCENTRICITY":0.00046336,"INCLINATION":0.1045,"RA_OF_ASC_NODE":86.8445,"ARG_OF_PERICENTER":163.9351,"MEAN_ANOMALY":23.8943,"EPHEMERIS_TYPE":0,"CLASSIFICATION_TYPE":"U","NORAD_CAT_ID":42662,"ELEMENT_SET_NO":999,"REV_AT_EPOCH":3322,"BSTAR":0,"MEAN_MOTION_DOT":-3.66e-6,"MEAN_MOTION_DDOT":0}]
